[{"OBJECT_NAME":"OBJECT B","OBJECT_ID":"2024-153B","EPOCH":"2026-03-09T23:15:18.632160","MEAN_MOTION":15.30512917,"ECCENTRICITY":0.00113423,"INCLINATION":97.6622,"RA_OF_ASC_NODE":204.9195,"ARG_OF_PERICENTER":149.8438,"MEAN_ANOMALY":210.3457,"EPHEMERIS_TYPE":0,"CLASSIFICATION_TYPE":"U","NORAD_CAT_ID":60746,"ELEMENT_SET_NO":999,"REV_AT_EPOCH":8476,"BSTAR":0.00066193599,"MEAN_MOTION_DOT":0.00019515,"MEAN_MOTION_DDOT":0},{"OBJECT_NAME":"STARLINK-32653","OBJECT_ID":"2024-229H","EPOCH":"2026-03-09T20:12:47.437344","MEAN_MOTION":15.27565953,"ECCENTRICITY":0.00010941,"INCLINATION":42.9969,"RA_OF_ASC_NODE":262.9749,"ARG_OF_PERICENTER":273.8257,"MEAN_ANOMALY":86.2469,"EPHEMERIS_TYPE":0,"CLASSIFICATION_TYPE":"U","NORAD_CAT_ID":62199,"ELEMENT_SET_NO":999,"REV_AT_EPOCH":7066,"BSTAR":0.00085986176,"MEAN_MOTION_DOT":0.00023465,"MEAN_MOTION_DDOT":0}]
